{"fetched_at":"2026-03-29T16:36:15Z","count":15609,"tles":[{"name":"KUIPER-00150","line1":"1 65770U 25217J   26087.95490609  .00004830  00000+0  66139-3 0  9999","line2":"2 65770  51.9027 325.4184 0000361 104.9305 255.1697 14.79975292 27627","category":"Other"}]}